NORAD_CAT_ID,OBJECT_NAME,OBJECT_TYPE,EPOCH,MEAN_MOTION,ECCENTRICITY,INCLINATION,RA_OF_ASC_NODE,ARG_OF_PERICENTER,MEAN_ANOMALY,BSTAR,MEAN_MOTION_DOT,MEAN_MOTION_DDOT,TLE_LINE0,TLE_LINE1,TLE_LINE2,SEMIMAJOR_AXIS,PERIOD,APOGEE,PERIGEE,DECAYED
52291.0,STARLINK-3773,PAYLOAD,2023-11-06 08:11:05,15.08865027,0.000139,53.2182,334.4413,93.5251,266.59,0.00055115,8.5e-05,0.0,0 STARLINK-3773,1 52291U 22041AG  23310.34103240  .00008500  00000-0  55115-3 0  9997,2 52291  53.2182 334.4413 0001390  93.5251 266.5900 15.08865027 86747,6917.804,95.436,540.63,538.707,0.0
52291.0,STARLINK-3773,PAYLOAD,2023-11-07 08:01:54,15.08807445,0.0001137,53.2183,329.9799,92.6835,267.4287,-0.00015946,-2.822e-05,0.0,0 STARLINK-3773,1 52291U 22041AG  23311.33465618 -.00002822  00000-0 -15946-3 0  9998,2 52291  53.2183 329.9799 0001137  92.6835 267.4287 15.08807445 86895,6917.98,95.44,540.631,539.058,0.0
52291.0,STARLINK-3773,PAYLOAD,2023-11-08 01:31:09,15.08827117,0.0001094,53.2171,326.7096,59.8216,300.2884,0.0011615,0.00018239,0.0,0 STARLINK-3773,1 52291U 22041AG  23312.06330572  .00018239  00000-0  11615-2 0  9994,2 52291  53.2171 326.7096 0001094  59.8216 300.2884 15.08827117 87008,6917.92,95.438,540.542,539.028,0.0
52291.0,STARLINK-3773,PAYLOAD,2023-11-08 07:52:41,15.08848503,0.0001434,53.2189,325.5216,80.155,279.9604,0.0025883,0.00041155,0.0,0 STARLINK-3773,1 52291U 22041AG  23312.32826383  .00041155  00000-0  25883-2 0  9998,2 52291  53.2189 325.5216 0001434  80.1550 279.9604 15.08848503 87042,6917.854,95.437,540.711,538.727,0.0
52291.0,STARLINK-3773,PAYLOAD,2023-11-08 17:25:00,15.0887005,0.0001294,53.2187,323.736,81.25,278.8639,0.00057406,8.867e-05,0.0,0 STARLINK-3773,1 52291U 22041AG  23312.72569448  .00008867  00000-0  57406-3 0  9998,2 52291  53.2187 323.7360 0001294  81.2500 278.8639 15.08870050 87106,6917.789,95.436,540.549,538.758,0.0
52291.0,STARLINK-3773,PAYLOAD,2023-11-09 07:43:27,15.08872271,0.0001419,53.2182,321.0581,105.3204,254.7945,0.00056833,8.776e-05,0.0,0 STARLINK-3773,1 52291U 22041AG  23313.32184506  .00008776  00000-0  56833-3 0  9995,2 52291  53.2182 321.0581 0001419 105.3204 254.7945 15.08872271 87194,6917.782,95.436,540.628,538.665,0.0
52291.0,STARLINK-3773,PAYLOAD,2023-11-09 17:15:46,15.0885631,0.0001494,53.218,319.275,109.766,250.3493,0.00021018,3.06e-05,0.0,0 STARLINK-3773,1 52291U 22041AG  23313.71928580  .00003060  00000-0  21018-3 0  9994,2 52291  53.2180 319.2750 0001494 109.7660 250.3493 15.08856310 87259,6917.831,95.437,540.729,538.662,0.0
52291.0,STARLINK-3773,PAYLOAD,2023-11-10 04:23:28,15.08841034,0.0001647,53.2179,317.1953,104.8629,255.2546,2.5552e-05,1.19e-06,0.0,0 STARLINK-3773,1 52291U 22041AG  23314.18296878  .00000119  00000-0  25552-4 0  9994,2 52291  53.2179 317.1953 0001647 104.8629 255.2546 15.08841034 87328,6917.877,95.437,540.882,538.603,0.0
52291.0,STARLINK-3773,PAYLOAD,2023-11-10 07:34:14,15.08842059,0.0001596,53.218,316.6009,102.2927,257.8244,0.00053131,8.178e-05,0.0,0 STARLINK-3773,1 52291U 22041AG  23314.31544952  .00008178  00000-0  53131-3 0  9994,2 52291  53.2180 316.6009 0001596 102.2927 257.8244 15.08842059 86120,6917.874,95.437,540.843,538.635,0.0
52291.0,STARLINK-3773,PAYLOAD,2023-11-10 17:06:33,15.08842218,0.0001409,53.2168,314.8159,96.7351,263.3802,0.00059601,9.211e-05,0.0,0 STARLINK-3773,1 52291U 22041AG  23314.71289120  .00009211  00000-0  59601-3 0  9998,2 52291  53.2168 314.8159 0001409  96.7351 263.3802 15.08842218 86188,6917.874,95.437,540.713,538.764,0.0
52291.0,STARLINK-3773,PAYLOAD,2023-11-11 07:25:02,15.08838706,0.0001771,53.2166,312.1364,85.8812,274.2383,0.00038574,5.856e-05,0.0,0 STARLINK-3773,1 52291U 22041AG  23315.30905506  .00005856  00000-0  38574-3 0  9994,2 52291  53.2166 312.1364 0001771  85.8812 274.2383 15.08838706 87495,6917.884,95.438,540.975,538.524,0.0
52291.0,STARLINK-3773,PAYLOAD,2023-11-11 16:57:21,15.08844567,0.0001435,53.2161,310.3523,93.0292,267.0865,0.0005743,8.865e-05,0.0,0 STARLINK-3773,1 52291U 22041AG  23315.70649339  .00008865  00000-0  57430-3 0  9992,2 52291  53.2161 310.3523 0001435  93.0292 267.0865 15.08844567 86336,6917.866,95.437,540.724,538.739,0.0
52291.0,STARLINK-3773,PAYLOAD,2023-11-12 07:15:49,15.08846228,0.0001661,53.2167,307.6785,91.8141,268.3042,0.00043162,6.589e-05,0.0,0 STARLINK-3773,1 52291U 22041AG  23316.30265532  .00006589  00000-0  43162-3 0  9996,2 52291  53.2167 307.6785 0001661  91.8141 268.3042 15.08846228 86428,6917.861,95.437,540.875,538.577,0.0
52291.0,STARLINK-3773,PAYLOAD,2023-11-12 16:48:08,15.08848676,0.0001602,53.2169,305.893,92.2953,267.8222,0.00061068,9.447e-05,0.0,0 STARLINK-3773,1 52291U 22041AG  23316.70009460  .00009447  00000-0  61068-3 0  9997,2 52291  53.2169 305.8930 0001602  92.2953 267.8222 15.08848676 87708,6917.854,95.437,540.827,538.611,0.0
52291.0,STARLINK-3773,PAYLOAD,2023-11-13 05:31:12,15.08855319,0.000174,53.2179,303.5154,98.4759,261.643,0.00050763,7.803e-05,0.0,0 STARLINK-3773,1 52291U 22041AG  23317.23001084  .00007803  00000-0  50763-3 0  9994,2 52291  53.2179 303.5154 0001740  98.4759 261.6430 15.08855319 86565,6917.834,95.437,540.902,538.495,0.0
52291.0,STARLINK-3773,PAYLOAD,2023-11-13 16:38:54,15.08853085,0.0001704,53.2179,301.4336,94.6412,265.4774,0.00040448,6.157e-05,0.0,0 STARLINK-3773,1 52291U 22041AG  23317.69369016  .00006157  00000-0  40448-3 0  9996,2 52291  53.2179 301.4336 0001704  94.6412 265.4774 15.08853085 87852,6917.84,95.437,540.884,538.527,0.0
52291.0,STARLINK-3773,PAYLOAD,2023-11-14 03:46:36,15.08845782,0.0001792,53.2178,299.3527,96.0422,264.0774,0.00012908,1.767e-05,0.0,0 STARLINK-3773,1 52291U 22041AG  23318.15737098  .00001767  00000-0  12908-3 0  9999,2 52291  53.2178 299.3527 0001792  96.0422 264.0774 15.08845782 87920,6917.863,95.437,540.967,538.488,0.0
52291.0,STARLINK-3773,PAYLOAD,2023-11-14 08:32:46,15.08849023,0.00018,53.218,298.4595,102.5613,257.5581,0.00016243,2.299e-05,0.0,0 STARLINK-3773,1 52291U 22041AG  23318.35608833  .00002299  00000-0  16243-3 0  9992,2 52291  53.2180 298.4595 0001800 102.5613 257.5581 15.08849023 86736,6917.853,95.437,540.963,538.473,0.0
52291.0,STARLINK-3773,PAYLOAD,2023-11-14 16:29:42,15.08838165,0.0001953,53.2168,296.9735,90.2534,269.8682,5.4648e-06,-2.01e-06,0.0,0 STARLINK-3773,1 52291U 22041AG  23318.68729571 -.00000201  00000-0  54648-5 0  9996,2 52291  53.2168 296.9735 0001953  90.2534 269.8682 15.08838165 88000,6917.886,95.438,541.102,538.4,0.0
52291.0,STARLINK-3773,PAYLOAD,2023-11-15 03:37:24,15.08838507,0.0001605,53.217,294.8919,96.3343,263.7832,1.67e-05,-2.2e-07,0.0,0 STARLINK-3773,1 52291U 22041AG  23319.15097485 -.00000022  00000-0  16700-4 0  9998,2 52291  53.2170 294.8919 0001605  96.3343 263.7832 15.08838507 86854,6917.885,95.438,540.86,538.64,0.0
52291.0,STARLINK-3773,PAYLOAD,2023-11-15 22:42:01,15.0884003,0.0001803,53.2182,291.3223,103.347,256.7723,0.00012205,1.655e-05,0.0,0 STARLINK-3773,1 52291U 22041AG  23319.94585617  .00001655  00000-0  12205-3 0  9991,2 52291  53.2182 291.3223 0001803 103.3470 256.7723 15.08840030 86975,6917.88,95.438,540.993,538.498,0.0
52291.0,STARLINK-3773,PAYLOAD,2023-11-16 05:03:34,15.08846085,0.0001807,53.2187,290.1306,110.5591,249.5596,0.00013861,1.919e-05,0.0,0 STARLINK-3773,1 52291U 22041AG  23320.21081248  .00001919  00000-0  13861-3 0  9996,2 52291  53.2187 290.1306 0001807 110.5591 249.5596 15.08846085 87017,6917.862,95.437,540.977,538.477,0.0
52291.0,STARLINK-3773,PAYLOAD,2023-11-16 22:32:49,15.08837501,0.0001835,53.2185,286.8631,93.2801,266.8401,0.00014628,2.041e-05,0.0,0 STARLINK-3773,1 52291U 22041AG  23320.93945967  .00002041  00000-0  14628-3 0  9991,2 52291  53.2185 286.8631 0001835  93.2801 266.8401 15.08837501 87122,6917.888,95.438,541.022,538.484,0.0
52291.0,STARLINK-3773,PAYLOAD,2023-11-17 04:54:21,15.08838616,0.000184,53.2186,285.6739,91.3175,268.8028,0.0001392,1.928e-05,0.0,0 STARLINK-3773,1 52291U 22041AG  23321.20441965  .00001928  00000-0  13920-3 0  9998,2 52291  53.2186 285.6739 0001840  91.3175 268.8028 15.08838616 88382,6917.885,95.438,541.023,538.477,0.0
52291.0,STARLINK-3773,PAYLOAD,2023-11-17 14:26:40,15.08834681,0.0001771,53.2179,283.8899,87.0277,273.0917,3.5839e-05,2.82e-06,0.0,0 STARLINK-3773,1 52291U 22041AG  23321.60186242  .00000282  00000-0  35839-4 0  9992,2 52291  53.2179 283.8899 0001771  87.0277 273.0917 15.08834681 87224,6917.897,95.438,540.987,538.536,0.0
52291.0,STARLINK-3773,PAYLOAD,2023-11-18 14:17:27,15.08842468,0.000172,53.2173,279.4301,75.6018,284.5165,0.00011509,1.544e-05,0.0,0 STARLINK-3773,1 52291U 22041AG  23322.59546172  .00001544  00000-0  11509-3 0  9992,2 52291  53.2173 279.4301 0001720  75.6018 284.5165 15.08842468 87377,6917.873,95.437,540.928,538.548,0.0
52291.0,STARLINK-3773,PAYLOAD,2023-11-18 20:39:00,15.08836354,0.0001655,53.2174,278.2409,81.9833,278.1347,0.0001262,1.721e-05,0.0,0 STARLINK-3773,1 52291U 22041AG  23322.86042440  .00001721  00000-0  12620-3 0  9993,2 52291  53.2174 278.2409 0001655  81.9833 278.1347 15.08836354 87419,6917.892,95.438,540.901,538.612,0.0
52291.0,STARLINK-3773,PAYLOAD,2023-11-19 03:00:33,15.0883648,0.0001637,53.2178,277.0512,82.4653,277.6525,9.5077e-05,1.225e-05,0.0,0 STARLINK-3773,1 52291U 22041AG  23323.12538592  .00001225  00000-0  95077-4 0  9998,2 52291  53.2178 277.0512 0001637  82.4653 277.6525 15.08836480 88672,6917.891,95.438,540.889,538.624,0.0
52291.0,STARLINK-3773,PAYLOAD,2023-11-19 14:08:14,15.08842488,0.0001695,53.2184,274.9696,89.7242,270.3945,0.00017104,2.435e-05,0.0,0 STARLINK-3773,1 52291U 22041AG  23323.58906163  .00002435  00000-0  17104-3 0  9999,2 52291  53.2184 274.9696 0001695  89.7242 270.3945 15.08842488 87520,6917.873,95.437,540.91,538.565,0.0
52291.0,STARLINK-3773,PAYLOAD,2023-11-20 02:51:19,15.08848439,0.0001499,53.218,272.5908,87.5975,272.5188,0.00011609,1.56e-05,0.0,0 STARLINK-3773,1 52291U 22041AG  23324.11897715  .00001560  00000-0  11609-3 0  9993,2 52291  53.2180 272.5908 0001499  87.5975 272.5188 15.08848439 88826,6917.855,95.437,540.757,538.683,0.0
